{"type": "FeatureCollection", "features": [ {"type": "Feature", "properties": {"norad_id": 30013, "name": "FENGYUN 1C DEB", "group": "fengyun-1c-debris", "lat": 39.3915010495579, "lon": 0.4305979928999861, "alt_km": 839.4233011593096, "timestamp": "2025-12-14T22:38:41.031154+00:00", "meta": {"OBJECT_NAME": "FENGYUN 1C DEB", "OBJECT_ID": "1999-025MN", "EPOCH": "2025-12-14T00:15:39.821184", "MEAN_MOTION": 13.87826126, "ECCENTRICITY": 0.01281769, "INCLINATION": 99.5802, "RA_OF_ASC_NODE": 7.4457, "ARG_OF_PERICENTER": 40.6552, "MEAN_ANOMALY": 22.2209, "EPHEMERIS_TYPE": 0, "CLASSIFICATION_TYPE": "U", "NORAD_CAT_ID": 30013, "ELEMENT_SET_NO": 999, "REV_AT_EPOCH": 95699, "BSTAR": 0.00031925582, "MEAN_MOTION_DOT": 3.58e-06, "MEAN_MOTION_DDOT": 0}, "tle": {"line1": "1 30013U 99025MN  25348.01087756  .00000358  00000+0  31926-3 0  9997", "line2": "2 30013  99.5802   7.4457 0128176  40.6552  22.2209 13.87826126956995"}}, "geometry": {"type": "Point", "coordinates": [0.4305979928999861, 39.3915010495579]}}, {"type": "Feature", "properties": {"norad_id": 30015, "name": "FENGYUN 1C DEB", "group": "fengyun-1c-debris", "lat": -54.03793160442259, "lon": 159.00978293449, "alt_km": 808.1947913455233, "timestamp": "2025-12-14T22:38:41.031164+00:00", "meta": {"OBJECT_NAME": "FENGYUN 1C DEB", "OBJECT_ID": "1999-025MQ", "EPOCH": "2025-12-14T06:33:50.609952", "MEAN_MOTION": 14.30805269, "ECCENTRICITY": 0.00385958, "INCLINATION": 99.2287, "RA_OF_ASC_NODE": 351.2483, "ARG_OF_PERICENTER": 120.5781, "MEAN_ANOMALY": 264.7241, "EPHEMERIS_TYPE": 0, "CLASSIFICATION_TYPE": "U", "NORAD_CAT_ID": 30015, "ELEMENT_SET_NO": 999, "REV_AT_EPOCH": 98195, "BSTAR": 0.00069937696, "MEAN_MOTION_DOT": 1.799e-05, "MEAN_MOTION_DDOT": 0}, "tle": {"line1": "1 30015U 99025MQ  25348.27350243  .00001799  00000+0  69938-3 0  9995", "line2": "2 30015  99.2287 351.2483 0038595 120.5781 264.7241 14.30805269981954"}}, "geometry": {"type": "Point", "coordinates": [159.00978293449, -54.03793160442259]}}, {"type": "Feature", "properties": {"norad_id": 30016, "name": "FENGYUN 1C DEB", "group": "fengyun-1c-debris", "lat": 20.03713829694597, "lon": -2.138188302900927, "alt_km": 601.9537040180858, "timestamp": "2025-12-14T22:38:41.031174+00:00", "meta": {"OBJECT_NAME": "FENGYUN 1C DEB", "OBJECT_ID": "1999-025MR", "EPOCH": "2025-12-14T00:03:21.422592", "MEAN_MOTION": 14.78560204, "ECCENTRICITY": 0.00468213, "INCLINATION": 98.9057, "RA_OF_ASC_NODE": 0.0997, "ARG_OF_PERICENTER": 37.2052, "MEAN_ANOMALY": 16.4078, "EPHEMERIS_TYPE": 0, "CLASSIFICATION_TYPE": "U", "NORAD_CAT_ID": 30016, "ELEMENT_SET_NO": 999, "REV_AT_EPOCH": 99472, "BSTAR": 0.0020313278, "MEAN_MOTION_DOT": 0.00015092, "MEAN_MOTION_DDOT": 0}, "tle": {"line1": "1 30016U 99025MR  25348.00233128  .00015092  00000+0  20313-2 0  9993", "line2": "2 30016  98.9057   0.0997 0046821  37.2052  16.4078 14.78560204994729"}}, "geometry": {"type": "Point", "coordinates": [-2.138188302900927, 20.03713829694597]}}, {"type": "Feature", "properties": {"norad_id": 30017, "name": "FENGYUN 1C DEB", "group": "fengyun-1c-debris", "lat": 21.23890607120155, "lon": 30.228612948533673, "alt_km": 816.6225385777507, "timestamp": "2025-12-14T22:38:41.031184+00:00", "meta": {"OBJECT_NAME": "FENGYUN 1C DEB", "OBJECT_ID": "1999-025MS", "EPOCH": "2025-12-14T02:49:14.929824", "MEAN_MOTION": 14.61200402, "ECCENTRICITY": 0.02175294, "INCLINATION": 98.7547, "RA_OF_ASC_NODE": 32.7881, "ARG_OF_PERICENTER": 170.8402, "MEAN_ANOMALY": 189.6868, "EPHEMERIS_TYPE": 0, "CLASSIFICATION_TYPE": "U", "NORAD_CAT_ID": 30017, "ELEMENT_SET_NO": 999, "REV_AT_EPOCH": 464, "BSTAR": 0.00023195587, "MEAN_MOTION_DOT": 1.533e-05, "MEAN_MOTION_DDOT": 0}, "tle": {"line1": "1 30017U 99025MS  25348.11753391  .00001533  00000+0  23196-3 0  9993", "line2": "2 30017  98.7547  32.7881 0217529 170.8402 189.6868 14.61200402  4640"}}, "geometry": {"type": "Point", "coordinates": [30.228612948533673, 21.23890607120155]}}, {"type": "Feature", "properties": {"norad_id": 30018, "name": "FENGYUN 1C DEB", "group": "fengyun-1c-debris", "lat": 29.151509966705365, "lon": -103.31310060115429, "alt_km": 584.5737346219685, "timestamp": "2025-12-14T22:38:41.031195+00:00", "meta": {"OBJECT_NAME": "FENGYUN 1C DEB", "OBJECT_ID": "1999-025MT", "EPOCH": "2025-12-14T04:10:11.871264", "MEAN_MOTION": 14.73203369, "ECCENTRICITY": 0.01167211, "INCLINATION": 98.756, "RA_OF_ASC_NODE": 70.9254, "ARG_OF_PERICENTER": 190.9713, "MEAN_ANOMALY": 200.0555, "EPHEMERIS_TYPE": 0, "CLASSIFICATION_TYPE": "U", "NORAD_CAT_ID": 30018, "ELEMENT_SET_NO": 999, "REV_AT_EPOCH": 458, "BSTAR": 0.0009655366, "MEAN_MOTION_DOT": 6.884e-05, "MEAN_MOTION_DDOT": 0}, "tle": {"line1": "1 30018U 99025MT  25348.17374851  .00006884  00000+0  96554-3 0  9992", "line2": "2 30018  98.7560  70.9254 0116721 190.9713 200.0555 14.73203369  4586"}}, "geometry": {"type": "Point", "coordinates": [-103.31310060115429, 29.151509966705365]}}, {"type": "Feature", "properties": {"norad_id": 30020, "name": "FENGYUN 1C DEB", "group": "fengyun-1c-debris", "lat": 61.633549420788384, "lon": -24.06631042485973, "alt_km": 738.8078915786091, "timestamp": "2025-12-14T22:38:41.031205+00:00", "meta": {"OBJECT_NAME": "FENGYUN 1C DEB", "OBJECT_ID": "1999-025MV", "EPOCH": "2025-12-14T07:02:12.435936", "MEAN_MOTION": 14.04469609, "ECCENTRICITY": 0.01839957, "INCLINATION": 98.8473, "RA_OF_ASC_NODE": 352.0655, "ARG_OF_PERICENTER": 66.1675, "MEAN_ANOMALY": 310.5569, "EPHEMERIS_TYPE": 0, "CLASSIFICATION_TYPE": "U", "NORAD_CAT_ID": 30020, "ELEMENT_SET_NO": 999, "REV_AT_EPOCH": 96680, "BSTAR": 0.00064675764, "MEAN_MOTION_DOT": 1.158e-05, "MEAN_MOTION_DDOT": 0}, "tle": {"line1": "1 30020U 99025MV  25348.29319949  .00001158  00000+0  64676-3 0  9994", "line2": "2 30020  98.8473 352.0655 0183995  66.1675 310.5569 14.04469609966809"}}, "geometry": {"type": "Point", "coordinates": [-24.06631042485973, 61.633549420788384]}}, {"type": "Feature", "properties": {"norad_id": 30021, "name": "FENGYUN 1C DEB", "group": "fengyun-1c-debris", "lat": -47.06082045204157, "lon": 150.7902591762009, "alt_km": 852.1023050761087, "timestamp": "2025-12-14T22:38:41.031215+00:00", "meta": {"OBJECT_NAME": "FENGYUN 1C DEB", "OBJECT_ID": "1999-025MW", "EPOCH": "2025-12-14T06:13:47.570304", "MEAN_MOTION": 14.04893214, "ECCENTRICITY": 0.00719199, "INCLINATION": 98.8357, "RA_OF_ASC_NODE": 339.7468, "ARG_OF_PERICENTER": 282.7811, "MEAN_ANOMALY": 88.3453, "EPHEMERIS_TYPE": 0, "CLASSIFICATION_TYPE": "U", "NORAD_CAT_ID": 30021, "ELEMENT_SET_NO": 999, "REV_AT_EPOCH": 96953, "BSTAR": 0.00024813815, "MEAN_MOTION_DOT": 3.64e-06, "MEAN_MOTION_DDOT": 0}, "tle": {"line1": "1 30021U 99025MW  25348.25957836  .00000364  00000+0  24814-3 0  9992", "line2": "2 30021  98.8357 339.7468 0071919 282.7811  88.3453 14.04893214969533"}}, "geometry": {"type": "Point", "coordinates": [150.7902591762009, -47.06082045204157]}}, {"type": "Feature", "properties": {"norad_id": 30022, "name": "FENGYUN 1C DEB", "group": "fengyun-1c-debris", "lat": -79.3812430920233, "lon": -104.42326214370217, "alt_km": 775.3708702609047, "timestamp": "2025-12-14T22:38:41.031225+00:00", "meta": {"OBJECT_NAME": "FENGYUN 1C DEB", "OBJECT_ID": "1999-025MX", "EPOCH": "2025-12-14T08:40:15.905280", "MEAN_MOTION": 14.23133203, "ECCENTRICITY": 0.00665658, "INCLINATION": 99.0721, "RA_OF_ASC_NODE": 196.5235, "ARG_OF_PERICENTER": 264.4155, "MEAN_ANOMALY": 269.6747, "EPHEMERIS_TYPE": 0, "CLASSIFICATION_TYPE": "U", "NORAD_CAT_ID": 30022, "ELEMENT_SET_NO": 999, "REV_AT_EPOCH": 98215, "BSTAR": 9.8347689e-05, "MEAN_MOTION_DOT": 1.79e-06, "MEAN_MOTION_DDOT": 0}, "tle": {"line1": "1 30022U 99025MX  25348.36129520  .00000179  00000+0  98348-4 0  9994", "line2": "2 30022  99.0721 196.5235 0066565 264.4155 269.6747 14.23133203982151"}}, "geometry": {"type": "Point", "coordinates": [-104.42326214370217, -79.3812430920233]}}, {"type": "Feature", "properties": {"norad_id": 30023, "name": "FENGYUN 1C DEB", "group": "fengyun-1c-debris", "lat": 61.896788350023215, "lon": 20.44054716263127, "alt_km": 829.2875159708492, "timestamp": "2025-12-14T22:38:41.031235+00:00", "meta": {"OBJECT_NAME": "FENGYUN 1C DEB", "OBJECT_ID": "1999-025MY", "EPOCH": "2025-12-14T07:38:15.148896", "MEAN_MOTION": 14.11865529, "ECCENTRICITY": 0.00471515, "INCLINATION": 99.2938, "RA_OF_ASC_NODE": 181.9366, "ARG_OF_PERICENTER": 59.2202, "MEAN_ANOMALY": 120.4327, "EPHEMERIS_TYPE": 0, "CLASSIFICATION_TYPE": "U", "NORAD_CAT_ID": 30023, "ELEMENT_SET_NO": 999, "REV_AT_EPOCH": 97218, "BSTAR": 0.00048991226, "MEAN_MOTION_DOT": 8.57e-06, "MEAN_MOTION_DDOT": 0}, "tle": {"line1": "1 30023U 99025MY  25348.31823089  .00000857  00000+0  48991-3 0  9992", "line2": "2 30023  99.2938 181.9366 0047151  59.2202 120.4327 14.11865529972180"}}, "geometry": {"type": "Point", "coordinates": [20.44054716263127, 61.896788350023215]}}, {"type": "Feature", "properties": {"norad_id": 30028, "name": "FENGYUN 1C DEB", "group": "fengyun-1c-debris", "lat": 19.111550665520713, "lon": -21.729947577429005, "alt_km": 822.0550048310224, "timestamp": "2025-12-14T22:38:41.031245+00:00", "meta": {"OBJECT_NAME": "FENGYUN 1C DEB", "OBJECT_ID": "1999-025ND", "EPOCH": "2025-12-13T23:45:10.217376", "MEAN_MOTION": 14.55496133, "ECCENTRICITY": 0.01742292, "INCLINATION": 98.1454, "RA_OF_ASC_NODE": 340.1839, "ARG_OF_PERICENTER": 224.4508, "MEAN_ANOMALY": 199.3035, "EPHEMERIS_TYPE": 0, "CLASSIFICATION_TYPE": "U", "NORAD_CAT_ID": 30028, "ELEMENT_SET_NO": 999, "REV_AT_EPOCH": 99740, "BSTAR": 0.00048677299, "MEAN_MOTION_DOT": 2.546e-05, "MEAN_MOTION_DDOT": 0}, "tle": {"line1": "1 30028U 99025ND  25347.98970159  .00002546  00000+0  48677-3 0  9998", "line2": "2 30028  98.1454 340.1839 0174229 224.4508 199.3035 14.55496133997404"}}, "geometry": {"type": "Point", "coordinates": [-21.729947577429005, 19.111550665520713]}}]}